COMMENT,ORIGINATOR,NORAD_CAT_ID,OBJECT_NAME,OBJECT_TYPE,CLASSIFICATION_TYPE,INTLDES,EPOCH,EPOCH_MICROSECONDS,MEAN_MOTION,ECCENTRICITY,INCLINATION,RA_OF_ASC_NODE,ARG_OF_PERICENTER,MEAN_ANOMALY,EPHEMERIS_TYPE,ELEMENT_SET_NO,REV_AT_EPOCH,BSTAR,MEAN_MOTION_DOT,MEAN_MOTION_DDOT,FILE,TLE_LINE0,TLE_LINE1,TLE_LINE2,OBJECT_ID,OBJECT_NUMBER,SEMIMAJOR_AXIS,PERIOD,APOGEE,PERIGEE
"GENERATED VIA SPACETRACK.ORG API","JSPOC","738","DELTA 1 R/B","ROCKET BODY","U","64003B","2016-01-13 22:17:53","878848","7.39340481","0.2588353","46.454","317.19","67.3358","317.9237","0","999","40387","0.010623","5.1e-07","0","1980270","0 DELTA 1 R/B","1   738U 64003B   16013.92909582 +.00000051 +00000-0 +10623-1 0  9995","2   738 046.4540 317.1900 2588353 067.3358 317.9237 07.39340481403873","1964-003B","738","11130.265","194.768","7633.035","1871.224"
"GENERATED VIA SPACETRACK.ORG API","JSPOC","14547","SL-8 R/B","ROCKET BODY","U","83120B","2016-01-13 22:17:54","657312","13.77072967","0.0045828","82.9335","119.3807","242.2834","255.8003","0","999","36862","4.2831e-05","5.7e-07","0","1980270","0 SL-8 R/B","1 14547U 83120B   16013.92910483 +.00000057 +00000-0 +42831-4 0  9996","2 14547 082.9335 119.3807 0045828 242.2834 255.8003 13.77072967368621","1983-120B","14547","7352.423","104.569","1007.983","940.594"
"GENERATED VIA SPACETRACK.ORG API","JSPOC","9662","SL-3 R/B","ROCKET BODY","U","77002B","2016-01-13 22:17:59","435232","14.00873606","0.0053279","81.2732","210.6519","83.7402","276.9829","0","999","99351","5.5573e-05","9.7e-07","0","1980270","0 SL-3 R/B","1  9662U 77002B   16013.92916013 +.00000097 +00000-0 +55573-4 0  9996","2  9662 081.2732 210.6519 0053279 083.7402 276.9829 14.00873606993517","1977-002B","9662","7268.908","102.792","929.501","852.045"
"GENERATED VIA SPACETRACK.ORG API","JSPOC","17145","COSMOS 1801","PAYLOAD","U","86092H","2016-01-13 22:18:00","496224","12.58795071","0.0054004","74.0142","105.1434","54.7581","353.3075","0","999","33933","9.8838e-05","1e-08","0","1980270","0 COSMOS 1801","1 17145U 86092H   16013.92917241 +.00000001 +00000-0 +98838-4 0  9990","2 17145 074.0142 105.1434 0054004 054.7581 353.3075 12.58795071339331","1986-092H","17145","7806.058","114.395","1470.079","1385.767"
"GENERATED VIA SPACETRACK.ORG API","JSPOC","18665","COSMOS 1900","PAYLOAD","U","87101A","2016-01-13 22:18:03","84768","14.54363292","0.0045627","66.0825","208.9835","284.509","75.0956","0","999","49473","1.6787e-05","-3.2e-07","0","1980270","0 COSMOS 1900","1 18665U 87101A   16013.92920237 -.00000032 +00000-0 +16787-4 0  9997","2 18665 066.0825 208.9835 0045627 284.5090 075.0956 14.54363292494730","1987-101A","18665","7089.570","99.012","743.782","679.087"
"GENERATED VIA SPACETRACK.ORG API","JSPOC","14372","COSMOS 1500","PAYLOAD","U","83099A","2016-01-13 22:18:07","534368","15.16021389","0.001751","82.517","137.2182","93.0773","2.9867","0","999","75863","0.00011812","2.309e-05","0","1980270","0 COSMOS 1500","1 14372U 83099A   16013.92925387 +.00002309 +00000-0 +11812-3 0  9992","2 14372 082.5170 137.2182 0017510 093.0773 002.9867 15.16021389758636","1983-099A","14372","6896.016","94.985","529.956","505.806"
"GENERATED VIA SPACETRACK.ORG API","JSPOC","26622","DELTA 2 R/B","ROCKET BODY","U","00075D","2016-01-13 22:18:08","356896","13.0438819","0.0718095","95.4337","332.2024","332.2687","69.3686","0","999","72085","-0.00053195","-6.15e-06","0","1980270","0 DELTA 2 R/B","1 26622U 00075D   16013.92926339 -.00000615 +00000-0 -53195-3 0  9994","2 26622 095.4337 332.2024 0718095 332.2687 069.3686 13.04388190720855","2000-075D","26622","7623.082","110.396","1792.356","697.537"
"GENERATED VIA SPACETRACK.ORG API","JSPOC","6920","NOAA 3","PAYLOAD","U","73086A","2016-01-13 22:18:10","639584","12.40356245","0.0006751","101.8627","348.924","332.0069","54.0774","0","999","90985","0.00011954","-2.8e-07","0","1980270","0 NOAA 3","1  6920U 73086A   16013.92928981 -.00000028 +00000-0 +11954-3 0  9994","2  6920 101.8627 348.9240 0006751 332.0069 054.0774 12.40356245909856","1973-086A","6920","7883.230","116.095","1510.417","1499.773"
"GENERATED VIA SPACETRACK.ORG API","JSPOC","25883","GLOBALSTAR M024","PAYLOAD","U","99043A","2016-01-13 22:18:12","48768","11.10129906","9.96e-05","51.9987","227.2576","165.4549","331.9729","0","999","73257","-0.0022671","-1.29e-06","0","1980270","0 GLOBALSTAR M024","1 25883U 99043A   16013.92930612 -.00000129 +00000-0 -22671-2 0  9998","2 25883 051.9987 227.2576 0000996 165.4549 331.9729 11.10129906732574","1999-043A","25883","8488.272","129.714","2110.982","2109.291"
"GENERATED VIA SPACETRACK.ORG API","JSPOC","17296","SL-14 R/B","ROCKET BODY","U","87003B","2016-01-13 22:18:13","925376","14.83075062","0.0020247","82.5307","151.3433","132.9332","227.3586","0","999","56600","3.0821e-05","2.76e-06","0","1980026","0 SL-14 R/B","1 17296U 87003B   16013.92932784  .00000276  00000-0  30821-4 0  9991","2 17296  82.5307 151.3433 0020247 132.9332 227.3586 14.83075062566006","1987-003B","17296","6997.771","97.095","633.804","605.468"
"GENERATED VIA SPACETRACK.ORG API","JSPOC","26997","JASON","PAYLOAD","U","01055A","2016-01-13 22:18:14","595840","12.83983998","0.0009143","66.0408","106.4496","269.3805","137.4035","0","999","65982","0.00012458","-3.2e-07","0","1980270","0 JASON","1 26997U 01055A   16013.92933560 -.00000032 +00000-0 +12458-3 0  9991","2 26997 066.0408 106.4496 0009143 269.3805 137.4035 12.83983998659822","2001-055A","26997","7703.630","112.150","1332.538","1318.451"
"GENERATED VIA SPACETRACK.ORG API","JSPOC","4486","DELTA 1 R/B","ROCKET BODY","U","70055B","2016-01-13 22:18:18","107136","6.69825009","0.4458463","27.9875","318.888","350.4647","3.2935","0","999","56208","0.0017249","0.00093091","0","1980270","0 DELTA 1 R/B","1  4486U 70055B   16013.92937624 +.00093091 +00000-0 +17249-2 0  9999","2  4486 027.9875 318.8880 4458463 350.4647 003.2935 06.69825009562089","1970-055B","4486","11887.602","214.981","10809.510","209.423"
"GENERATED VIA SPACETRACK.ORG API","JSPOC","35944","ARIANE 5 R/B","ROCKET BODY","U","09054C","2016-01-13 22:18:20","215296","2.46813755","0.7138721","3.3461","242.6292","10.7056","358.8776","0","999","5432","0.00078485","3.826e-05","0","1980270","0 ARIANE 5 R/B","1 35944U 09054C   16013.92940064 +.00003826 +00000-0 +78485-3 0  9992","2 35944 003.3461 242.6292 7138721 010.7056 358.8776 02.46813755054328","2009-054C","35944","23128.933","583.435","33261.898","239.698"
"GENERATED VIA SPACETRACK.ORG API","JSPOC","5555","SL-8 R/B","ROCKET BODY","U","71086J","2016-01-13 22:18:24","411744","12.26928561","0.0075212","74.0171","185.3603","46.5867","107.1372","0","999","98193","0.0010405","1.04e-06","0","1980270","0 SL-8 R/B","1  5555U 71086J   16013.92944921 +.00000104 +00000-0 +10405-2 0  9990","2  5555 074.0171 185.3603 0075212 046.5867 107.1372 12.26928561981934","1971-086J","5555","7940.642","117.366","1622.230","1502.784"
"GENERATED VIA SPACETRACK.ORG API","JSPOC","25649","GLOBALSTAR M022","PAYLOAD","U","99012A","2016-01-13 22:18:25","693056","12.02412189","0.000162","52.0052","287.6381","199.9485","283.5948","0","999","76228","0.00056122","-4e-07","0","1980270","0 GLOBALSTAR M022","1 25649U 99012A   16013.92946404 -.00000040 +00000-0 +56122-3 0  9990","2 25649 052.0052 287.6381 0001620 199.9485 283.5948 12.02412189762285","1999-012A","25649","8048.215","119.759","1671.384","1668.776"
"GENERATED VIA SPACETRACK.ORG API","JSPOC","19791","SL-14 R/B","ROCKET BODY","U","89009G","2016-01-13 22:18:46","799712","12.54854071","0.003501","82.6136","357.012","173.6129","214.6413","0","999","23303","-3.1117e-05","5e-08","0","1980270","0 SL-14 R/B","1 19791U 89009G   16013.92970833 +.00000005 +00000-0 -31117-4 0  9998","2 19791 082.6136 357.0120 0035010 173.6129 214.6413 12.54854071233030","1989-009G","19791","7822.394","114.754","1471.645","1416.872"
"GENERATED VIA SPACETRACK.ORG API","JSPOC","25592","SL-8 R/B","ROCKET BODY","U","98076B","2016-01-13 22:18:49","381344","13.74054112","0.0025356","82.9355","132.1499","207.8161","281.2063","0","999","85522","2.104e-05","3.5e-07","0","1980021","0 SL-8 R/B","1 25592U 98076B   16013.92973821  .00000035  00000-0  21040-4 0  9994","2 25592  82.9355 132.1499 0025356 207.8161 281.2063 13.74054112855224","1998-076B","25592","7363.189","104.799","1003.724","966.383"
"GENERATED VIA SPACETRACK.ORG API","JSPOC","25592","SL-8 R/B","ROCKET BODY","U","98076B","2016-01-13 22:18:49","381344","13.74054112","0.0025356","82.9355","132.1499","207.8161","281.2063","0","999","85496","2.104e-05","3.5e-07","0","1980270","0 SL-8 R/B","1 25592U 98076B   16013.92973821 +.00000035 +00000-0 +21040-4 0  9994","2 25592 082.9355 132.1499 0025356 207.8161 281.2063 13.74054112854964","1998-076B","25592","7363.189","104.799","1003.724","966.383"
"GENERATED VIA SPACETRACK.ORG API","JSPOC","28222","CZ-2C R/B","ROCKET BODY","U","04012C","2016-01-13 22:19:00","591744","15.07912432","0.005021","97.4535","337.0973","167.8626","226.8345","0","999","64213","0.00012521","1.913e-05","0","1980270","0 CZ-2C R/B","1 28222U 04012C   16013.92986796 +.00001913 +00000-0 +12521-3 0  9998","2 28222 097.4535 337.0973 0050210 167.8626 226.8345 15.07912432642137","2004-012C","28222","6920.717","95.496","577.330","507.833"
"GENERATED VIA SPACETRACK.ORG API","JSPOC","13271","COSMOS 1378","PAYLOAD","U","82059A","2016-01-13 22:19:08","317632","15.19617062","0.0006298","82.4669","11.0634","320.6729","62.2074","0","999","83067","0.00017903","3.844e-05","0","1980270","0 COSMOS 1378","1 13271U 82059A   16013.92995738 +.00003844 +00000-0 +17903-3 0  9993","2 13271 082.4669 011.0634 0006298 320.6729 062.2074 15.19617062830673","1982-059A","13271","6885.134","94.760","511.335","502.662"
